STARLINK-35733          
1 66224U 25244U   25324.65178743  .00042550  00000+0  76781-3 0  9991
2 66224  53.1600  20.0472 0001455 103.0196 257.0975 15.49350579  4914
STARLINK-35734          
1 66225U 25244V   25324.71662543  .00093552  00000+0  16685-2 0  9999
2 66225  53.1598  19.7401 0001845  59.0456 301.0734 15.49335259  4922
STARLINK-34466          
1 66226U 25244W   25324.65144721  .00076584  00000+0  13710-2 0  9998
2 66226  53.1598  20.0440 0001262 108.9576 251.1570 15.49321818  4919
STARLINK-34882          
1 66227U 25244X   25324.71560647  .00044207  00000+0  79970-3 0  9993
2 66227  53.1600  19.7322 0001537  75.2598 284.8581 15.49262642  4928
STARLINK-35731          
1 66228U 25244Y   25324.65073277  .00053444  00000+0  96218-3 0  9992
2 66228  53.1601  20.0386 0001221  85.2326 274.8822 15.49316106  4916
STARLINK-35758          
1 66229U 25244Z   25324.71490581  .00052777  00000+0  94992-3 0  9996
2 66229  53.1601  19.7285 0001385  78.1691 281.9474 15.49328780  4921
STARLINK-35736          
1 66230U 25244AA  25324.71456113  .00070573  00000+0  12642-2 0  9996
2 66230  53.1601  19.7258 0001274  72.3932 287.7216 15.49338608  4922
STARLINK-35735          
1 66231U 25244AB  25324.71422039  .00056670  00000+0  10191-2 0  9996
2 66231  53.1601  19.7239 0001622  57.2562 302.8604 15.49321586  4927
STARLINK-35753          
1 66232U 25244AC  25324.64936701  .00066376  00000+0  11903-2 0  9991
2 66232  53.1601  20.0304 0001418  84.9741 275.1430 15.49334309  4910
STARLINK-35626          
1 66233U 25244AD  25324.71353147  .00065490  00000+0  11748-2 0  9990
2 66233  53.1603  19.7195 0001308  87.5511 272.5648 15.49331475  4922
STARLINK-35537          
1 66234U 25245A   25324.75002315 -.00019708  00000+0 -34773-3 0  9991
2 66234  53.1605  73.4286 0001282  95.1917  56.7783 15.49263273  4572
STARLINK-35541          
1 66235U 25245B   25324.75002315  .00136016  00000+0  24236-2 0  9994
2 66235  53.1605  73.4240 0001260  91.8713  62.0518 15.49164145  4514
