CCSDS_OMM_VERS = 2.0
CREATION_DATE  = 
ORIGINATOR     = 

OBJECT_NAME    = STARLINK-35733
OBJECT_ID      = 2025-244U
CENTER_NAME    = EARTH
REF_FRAME      = TEME
TIME_SYSTEM    = UTC
MEAN_ELEMENT_THEORY = SGP/SGP4

EPOCH          = 2025-11-20T15:38:34.433952
MEAN_MOTION    = 15.49350579
ECCENTRICITY   = .0001455
INCLINATION    = 53.1600
RA_OF_ASC_NODE = 20.0472
ARG_OF_PERICENTER = 103.0196
MEAN_ANOMALY   = 257.0975

EPHEMERIS_TYPE = 0
CLASSIFICATION_TYPE = U
NORAD_CAT_ID   = 66224
ELEMENT_SET_NO = 999
REV_AT_EPOCH   = 491
BSTAR          = .76781E-3
MEAN_MOTION_DOT = .4255E-3
MEAN_MOTION_DDOT = 0

CCSDS_OMM_VERS = 2.0
CREATION_DATE  = 
ORIGINATOR     = 

OBJECT_NAME    = STARLINK-35734
OBJECT_ID      = 2025-244V
CENTER_NAME    = EARTH
REF_FRAME      = TEME
TIME_SYSTEM    = UTC
MEAN_ELEMENT_THEORY = SGP/SGP4

EPOCH          = 2025-11-20T17:11:56.437152
MEAN_MOTION    = 15.49335259
ECCENTRICITY   = .0001845
INCLINATION    = 53.1598
RA_OF_ASC_NODE = 19.7401
ARG_OF_PERICENTER = 59.0456
MEAN_ANOMALY   = 301.0734

EPHEMERIS_TYPE = 0
CLASSIFICATION_TYPE = U
NORAD_CAT_ID   = 66225
ELEMENT_SET_NO = 999
REV_AT_EPOCH   = 492
BSTAR          = .16685E-2
MEAN_MOTION_DOT = .93552E-3
MEAN_MOTION_DDOT = 0

CCSDS_OMM_VERS = 2.0
CREATION_DATE  = 
ORIGINATOR     = 

OBJECT_NAME    = STARLINK-34466
OBJECT_ID      = 2025-244W
CENTER_NAME    = EARTH
REF_FRAME      = TEME
TIME_SYSTEM    = UTC
MEAN_ELEMENT_THEORY = SGP/SGP4

EPOCH          = 2025-11-20T15:38:05.038944
MEAN_MOTION    = 15.49321818
ECCENTRICITY   = .0001262
INCLINATION    = 53.1598
RA_OF_ASC_NODE = 20.0440
ARG_OF_PERICENTER = 108.9576
MEAN_ANOMALY   = 251.1570

EPHEMERIS_TYPE = 0
CLASSIFICATION_TYPE = U
NORAD_CAT_ID   = 66226
ELEMENT_SET_NO = 999
REV_AT_EPOCH   = 491
BSTAR          = .1371E-2
MEAN_MOTION_DOT = .76584E-3
MEAN_MOTION_DDOT = 0

CCSDS_OMM_VERS = 2.0
CREATION_DATE  = 
ORIGINATOR     = 

OBJECT_NAME    = STARLINK-34882
OBJECT_ID      = 2025-244X
CENTER_NAME    = EARTH
REF_FRAME      = TEME
TIME_SYSTEM    = UTC
MEAN_ELEMENT_THEORY = SGP/SGP4

EPOCH          = 2025-11-20T17:10:28.399008
MEAN_MOTION    = 15.49262642
ECCENTRICITY   = .0001537
INCLINATION    = 53.1600
RA_OF_ASC_NODE = 19.7322
ARG_OF_PERICENTER = 75.2598
MEAN_ANOMALY   = 284.8581

EPHEMERIS_TYPE = 0
CLASSIFICATION_TYPE = U
NORAD_CAT_ID   = 66227
ELEMENT_SET_NO = 999
REV_AT_EPOCH   = 492
BSTAR          = .7997E-3
MEAN_MOTION_DOT = .44207E-3
MEAN_MOTION_DDOT = 0

CCSDS_OMM_VERS = 2.0
CREATION_DATE  = 
ORIGINATOR     = 

OBJECT_NAME    = STARLINK-35731
OBJECT_ID      = 2025-244Y
CENTER_NAME    = EARTH
REF_FRAME      = TEME
TIME_SYSTEM    = UTC
MEAN_ELEMENT_THEORY = SGP/SGP4

EPOCH          = 2025-11-20T15:37:03.311328
MEAN_MOTION    = 15.49316106
ECCENTRICITY   = .0001221
INCLINATION    = 53.1601
RA_OF_ASC_NODE = 20.0386
ARG_OF_PERICENTER = 85.2326
MEAN_ANOMALY   = 274.8822

EPHEMERIS_TYPE = 0
CLASSIFICATION_TYPE = U
NORAD_CAT_ID   = 66228
ELEMENT_SET_NO = 999
REV_AT_EPOCH   = 491
BSTAR          = .96218E-3
MEAN_MOTION_DOT = .53444E-3
MEAN_MOTION_DDOT = 0

CCSDS_OMM_VERS = 2.0
CREATION_DATE  = 
ORIGINATOR     = 

OBJECT_NAME    = STARLINK-35758
OBJECT_ID      = 2025-244Z
CENTER_NAME    = EARTH
REF_FRAME      = TEME
TIME_SYSTEM    = UTC
MEAN_ELEMENT_THEORY = SGP/SGP4

EPOCH          = 2025-11-20T17:09:27.861984
MEAN_MOTION    = 15.49328780
ECCENTRICITY   = .0001385
INCLINATION    = 53.1601
RA_OF_ASC_NODE = 19.7285
ARG_OF_PERICENTER = 78.1691
MEAN_ANOMALY   = 281.9474

EPHEMERIS_TYPE = 0
CLASSIFICATION_TYPE = U
NORAD_CAT_ID   = 66229
ELEMENT_SET_NO = 999
REV_AT_EPOCH   = 492
BSTAR          = .94992E-3
MEAN_MOTION_DOT = .52777E-3
MEAN_MOTION_DDOT = 0

CCSDS_OMM_VERS = 2.0
CREATION_DATE  = 
ORIGINATOR     = 

OBJECT_NAME    = STARLINK-35736
OBJECT_ID      = 2025-244AA
CENTER_NAME    = EARTH
REF_FRAME      = TEME
TIME_SYSTEM    = UTC
MEAN_ELEMENT_THEORY = SGP/SGP4

EPOCH          = 2025-11-20T17:08:58.081632
MEAN_MOTION    = 15.49338608
ECCENTRICITY   = .0001274
INCLINATION    = 53.1601
RA_OF_ASC_NODE = 19.7258
ARG_OF_PERICENTER = 72.3932
MEAN_ANOMALY   = 287.7216

EPHEMERIS_TYPE = 0
CLASSIFICATION_TYPE = U
NORAD_CAT_ID   = 66230
ELEMENT_SET_NO = 999
REV_AT_EPOCH   = 492
BSTAR          = .12642E-2
MEAN_MOTION_DOT = .70573E-3
MEAN_MOTION_DDOT = 0

CCSDS_OMM_VERS = 2.0
CREATION_DATE  = 
ORIGINATOR     = 

OBJECT_NAME    = STARLINK-35735
OBJECT_ID      = 2025-244AB
CENTER_NAME    = EARTH
REF_FRAME      = TEME
TIME_SYSTEM    = UTC
MEAN_ELEMENT_THEORY = SGP/SGP4

EPOCH          = 2025-11-20T17:08:28.641696
MEAN_MOTION    = 15.49321586
ECCENTRICITY   = .0001622
INCLINATION    = 53.1601
RA_OF_ASC_NODE = 19.7239
ARG_OF_PERICENTER = 57.2562
MEAN_ANOMALY   = 302.8604

EPHEMERIS_TYPE = 0
CLASSIFICATION_TYPE = U
NORAD_CAT_ID   = 66231
ELEMENT_SET_NO = 999
REV_AT_EPOCH   = 492
BSTAR          = .10191E-2
MEAN_MOTION_DOT = .5667E-3
MEAN_MOTION_DDOT = 0

CCSDS_OMM_VERS = 2.0
CREATION_DATE  = 
ORIGINATOR     = 

OBJECT_NAME    = STARLINK-35753
OBJECT_ID      = 2025-244AC
CENTER_NAME    = EARTH
REF_FRAME      = TEME
TIME_SYSTEM    = UTC
MEAN_ELEMENT_THEORY = SGP/SGP4

EPOCH          = 2025-11-20T15:35:05.309664
MEAN_MOTION    = 15.49334309
ECCENTRICITY   = .0001418
INCLINATION    = 53.1601
RA_OF_ASC_NODE = 20.0304
ARG_OF_PERICENTER = 84.9741
MEAN_ANOMALY   = 275.1430

EPHEMERIS_TYPE = 0
CLASSIFICATION_TYPE = U
NORAD_CAT_ID   = 66232
ELEMENT_SET_NO = 999
REV_AT_EPOCH   = 491
BSTAR          = .11903E-2
MEAN_MOTION_DOT = .66376E-3
MEAN_MOTION_DDOT = 0

CCSDS_OMM_VERS = 2.0
CREATION_DATE  = 
ORIGINATOR     = 

OBJECT_NAME    = STARLINK-35626
OBJECT_ID      = 2025-244AD
CENTER_NAME    = EARTH
REF_FRAME      = TEME
TIME_SYSTEM    = UTC
MEAN_ELEMENT_THEORY = SGP/SGP4

EPOCH          = 2025-11-20T17:07:29.119008
MEAN_MOTION    = 15.49331475
ECCENTRICITY   = .0001308
INCLINATION    = 53.1603
RA_OF_ASC_NODE = 19.7195
ARG_OF_PERICENTER = 87.5511
MEAN_ANOMALY   = 272.5648

EPHEMERIS_TYPE = 0
CLASSIFICATION_TYPE = U
NORAD_CAT_ID   = 66233
ELEMENT_SET_NO = 999
REV_AT_EPOCH   = 492
BSTAR          = .11748E-2
MEAN_MOTION_DOT = .6549E-3
MEAN_MOTION_DDOT = 0

CCSDS_OMM_VERS = 2.0
CREATION_DATE  = 
ORIGINATOR     = 

OBJECT_NAME    = STARLINK-35537
OBJECT_ID      = 2025-245A
CENTER_NAME    = EARTH
REF_FRAME      = TEME
TIME_SYSTEM    = UTC
MEAN_ELEMENT_THEORY = SGP/SGP4

EPOCH          = 2025-11-20T18:00:02.000160
MEAN_MOTION    = 15.49263273
ECCENTRICITY   = .0001282
INCLINATION    = 53.1605
RA_OF_ASC_NODE = 73.4286
ARG_OF_PERICENTER = 95.1917
MEAN_ANOMALY   = 56.7783

EPHEMERIS_TYPE = 0
CLASSIFICATION_TYPE = U
NORAD_CAT_ID   = 66234
ELEMENT_SET_NO = 999
REV_AT_EPOCH   = 457
BSTAR          = -.34773E-3
MEAN_MOTION_DOT = -.19708E-3
MEAN_MOTION_DDOT = 0

CCSDS_OMM_VERS = 2.0
CREATION_DATE  = 
ORIGINATOR     = 

OBJECT_NAME    = STARLINK-35541
OBJECT_ID      = 2025-245B
CENTER_NAME    = EARTH
REF_FRAME      = TEME
TIME_SYSTEM    = UTC
MEAN_ELEMENT_THEORY = SGP/SGP4

EPOCH          = 2025-11-20T18:00:02.000160
MEAN_MOTION    = 15.49164145
ECCENTRICITY   = .000126
INCLINATION    = 53.1605
RA_OF_ASC_NODE = 73.4240
ARG_OF_PERICENTER = 91.8713
MEAN_ANOMALY   = 62.0518

EPHEMERIS_TYPE = 0
CLASSIFICATION_TYPE = U
NORAD_CAT_ID   = 66235
ELEMENT_SET_NO = 999
REV_AT_EPOCH   = 451
BSTAR          = .24236E-2
MEAN_MOTION_DOT = .136016E-2
MEAN_MOTION_DDOT = 0

